NORAD_CAT_ID,OBJECT_NAME,OBJECT_TYPE,EPOCH,MEAN_MOTION,ECCENTRICITY,INCLINATION,RA_OF_ASC_NODE,ARG_OF_PERICENTER,MEAN_ANOMALY,BSTAR,MEAN_MOTION_DOT,MEAN_MOTION_DDOT,TLE_LINE0,TLE_LINE1,TLE_LINE2,SEMIMAJOR_AXIS,PERIOD,APOGEE,PERIGEE,DECAYED
54082.0,STARLINK-5210,PAYLOAD,2023-01-12 12:34:58,15.08854658,0.000125,53.2166,106.5717,57.0022,303.1090000000001,0.00013022,1.786e-05,0.0,0 STARLINK-5210,1 54082U 22136AH  23012.52428758  .00001786  00000-0  13022-3 0  9995,2 54082  53.2166 106.5717 0001250  57.0022 303.1090 15.08854658 13049,6917.835999999998,95.437,540.565,538.836,0.0
54082.0,STARLINK-5210,PAYLOAD,2023-01-12 23:42:40,15.08855547,0.0001431999999999,53.2164,104.4903,52.1728,307.9394,0.00011892,1.606e-05,0.0,0 STARLINK-5210,1 54082U 22136AH  23012.98796420  .00001606  00000-0  11892-3 0  9993,2 54082  53.2164 104.4903 0001432  52.1728 307.9394 15.08855547 13599,6917.833000000001,95.437,540.689,538.707,0.0
54082.0,STARLINK-5210,PAYLOAD,2023-01-13 12:25:48,15.08812684,0.0001039,53.216,102.1097,78.8165,281.2943,-0.00017564,-3.08e-05,0.0,0 STARLINK-5210,1 54082U 22136AH  23013.51792817 -.00003080  00000-0 -17564-3 0  9991,2 54082  53.2160 102.1097 0001039  78.8165 281.2943 15.08812684 13675,6917.964,95.439,540.548,539.11,0.0
54082.0,STARLINK-5210,PAYLOAD,2023-01-14 12:16:34,15.08844316,0.0001004999999999,53.2166,97.6499,80.4477,279.6628,1.0263e-05,-1.24e-06,0.0,0 STARLINK-5210,1 54082U 22136AH  23014.51150987 -.00000124  00000-0  10263-4 0  9993,2 54082  53.2166  97.6499 0001005  80.4477 279.6628 15.08844316 13828,6917.866999999999,95.437,540.427,539.0369999999999,0.0
54082.0,STARLINK-5210,PAYLOAD,2023-01-14 21:48:54,15.08822039,0.0001105999999999,53.2165,95.8645,75.0931,285.0184,0.00014403,2.004e-05,0.0,0 STARLINK-5210,1 54082U 22136AH  23014.90896388  .00002004  00000-0  14403-3 0  9995,2 54082  53.2165  95.8645 0001106  75.0931 285.0184 15.08822039 13889,6917.935,95.439,540.565,539.035,0.0
54082.0,STARLINK-5210,PAYLOAD,2023-01-15 05:45:50,15.0881505,9.21e-05,53.2153,94.3801,94.1042,266.0055,0.00019499,2.815e-05,0.0,0 STARLINK-5210,1 54082U 22136AH  23015.24016982  .00002815  00000-0  19499-3 0  9997,2 54082  53.2153  94.3801 0000921  94.1042 266.0055 15.08815050 13457,6917.956999999999,95.439,540.4590000000001,539.185,0.0
54082.0,STARLINK-5210,PAYLOAD,2023-01-15 21:39:40,15.0884151,4.8e-05,53.2148,91.402,92.3929,267.7118,0.00026287,3.899e-05,0.0,0 STARLINK-5210,1 54082U 22136AH  23015.90255370  .00003899  00000-0  26287-3 0  9992,2 54082  53.2148  91.4020 0000480  92.3929 267.7118 15.08841510 13555,6917.876,95.437,540.073,539.409,0.0
54082.0,STARLINK-5210,PAYLOAD,2023-01-16 10:22:46,15.08848678,0.0001139,53.2168,89.0263,96.9426,263.1696,6.453e-05,7.400000000000001e-06,0.0,0 STARLINK-5210,1 54082U 22136AH  23016.43247782  .00000740  00000-0  64530-4 0  9995,2 54082  53.2168  89.0263 0001139  96.9426 263.1696 15.08848678 13635,6917.854,95.437,540.507,538.931,0.0
54082.0,STARLINK-5210,PAYLOAD,2023-01-16 21:30:29,15.08834043,0.0001118,53.2166,86.9434,95.5359,264.5761,6.7998000000000005e-06,-1.8e-06,0.0,0 STARLINK-5210,1 54082U 22136AH  23016.89616907 -.00000180  00000-0  67998-5 0  9995,2 54082  53.2166  86.9434 0001118  95.5359 264.5761 15.08834043 13703,6917.899,95.438,540.5369999999999,538.99,0.0
54082.0,STARLINK-5210,PAYLOAD,2023-01-17 03:52:03,15.08812887,0.000149,53.2167,85.7561,103.948,256.1678,-9.8768e-05,-1.858e-05,0.0,0 STARLINK-5210,1 54082U 22136AH  23017.16114913 -.00001858  00000-0 -98768-4 0  9998,2 54082  53.2167  85.7561 0001490 103.9480 256.1678 15.08812887 14228,6917.963000000001,95.439,540.859,538.797,0.0
54082.0,STARLINK-5210,PAYLOAD,2023-01-17 22:56:41,15.08818259,0.0001648,53.2158,82.1906,105.5076,254.6098,-9.55e-05,-1.807e-05,0.0,0 STARLINK-5210,1 54082U 22136AH  23017.95603200 -.00001807  00000-0 -95500-4 0  9992,2 54082  53.2158  82.1906 0001648 105.5076 254.6098 15.08818259 14347,6917.946999999999,95.439,540.952,538.672,0.0
54082.0,STARLINK-5210,PAYLOAD,2023-01-18 10:04:21,15.088482999999998,0.0001187,53.2168,80.1045,112.4126,247.6991,0.00011339,1.518e-05,0.0,0 STARLINK-5210,1 54082U 22136AH  23018.41968900  .00001518  00000-0  11339-3 0  9999,2 54082  53.2168  80.1045 0001187 112.4126 247.6991 15.08848300 14413,6917.855,95.437,540.5409999999999,538.899,0.0
54082.0,STARLINK-5210,PAYLOAD,2023-01-18 13:15:05,15.08869724,0.0001167,53.2174,79.5096,112.2909,247.8207,0.00015196,2.133e-05,0.0,0 STARLINK-5210,1 54082U 22136AH  23018.55215199  .00002133  00000-0  15196-3 0  9998,2 54082  53.2174  79.5096 0001167 112.2909 247.8207 15.08869724 13956,6917.79,95.436,540.462,538.847,0.0
54082.0,STARLINK-5210,PAYLOAD,2023-01-18 21:12:03,15.08844784,0.0001501,53.2172,78.0224,96.2822,263.8341,0.00019374,2.797e-05,0.0,0 STARLINK-5210,1 54082U 22136AH  23018.88336823  .00002797  00000-0  19374-3 0  9990,2 54082  53.2172  78.0224 0001501  96.2822 263.8341 15.08844784 14001,6917.866,95.437,540.769,538.692,0.0
54082.0,STARLINK-5210,PAYLOAD,2023-01-19 03:33:35,15.08840517,0.0001689,53.2167,76.8372,92.3759,267.7427,0.0002805,4.179e-05,0.0,0 STARLINK-5210,1 54082U 22136AH  23019.14832820  .00004179  00000-0  28050-3 0  9995,2 54082  53.2167  76.8372 0001689  92.3759 267.7427 15.08840517 14523,6917.879,95.438,540.9119999999999,538.575,0.0
54082.0,STARLINK-5210,PAYLOAD,2023-01-19 09:55:07,15.08848279,0.0001706999999999,53.2166,75.6478,92.2111,267.9077,0.00031356,4.707e-05,0.0,0 STARLINK-5210,1 54082U 22136AH  23019.41328194  .00004707  00000-0  31356-3 0  9999,2 54082  53.2166  75.6478 0001707  92.2111 267.9077 15.08848279 14085,6917.855,95.437,540.901,538.539,0.0
54082.0,STARLINK-5210,PAYLOAD,2023-01-19 22:38:13,15.08851454,0.0001319,53.2154,73.2631,104.0803,256.0336,-2.8543e-06,-3.33e-06,0.0,0 STARLINK-5210,1 54082U 22136AH  23019.94320911 -.00000333  00000-0 -28543-5 0  9995,2 54082  53.2154  73.2631 0001319 104.0803 256.0336 15.08851454 14644,6917.845,95.437,540.623,538.798,0.0
54082.0,STARLINK-5210,PAYLOAD,2023-01-20 09:45:55,15.08840004,0.0001334,53.2162,71.1837,91.5263,268.5882,-8.5323e-05,-1.646e-05,0.0,0 STARLINK-5210,1 54082U 22136AH  23020.40689793 -.00001646  00000-0 -85323-4 0  9990,2 54082  53.2162  71.1837 0001334  91.5263 268.5882 15.08840004 14716,6917.88,95.438,540.668,538.823,0.0
54082.0,STARLINK-5210,PAYLOAD,2023-01-20 12:56:41,15.0885215,0.0001174,53.2157,70.5863,94.5408,265.5718,-0.00011339,-2.093e-05,0.0,0 STARLINK-5210,1 54082U 22136AH  23020.53936994 -.00002093  00000-0 -11339-3 0  9994,2 54082  53.2157  70.5863 0001174  94.5408 265.5718 15.08852150 14730,6917.843000000001,95.437,540.52,538.896,0.0
54082.0,STARLINK-5210,PAYLOAD,2023-01-21 09:36:42,15.08842895,0.0001204,53.2161,66.7215,89.8975,270.2155,9.7602e-06,-1.33e-06,0.0,0 STARLINK-5210,1 54082U 22136AH  23021.40049032 -.00000133  00000-0  97602-5 0  9990,2 54082  53.2161  66.7215 0001204  89.8975 270.2155 15.08842895 14860,6917.871999999999,95.437,540.569,538.904,0.0
54082.0,STARLINK-5210,PAYLOAD,2023-01-22 18:59:48,15.08841677,0.0001367,53.2176,60.4776,78.6745,281.4401,3.767e-05,3.12e-06,0.0,0 STARLINK-5210,1 54082U 22136AH  23022.79153093  .00000312  00000-0  37670-4 0  9992,2 54082  53.2176  60.4776 0001367  78.6745 281.4401 15.08841677 15079,6917.875,95.437,540.686,538.795,0.0
54082.0,STARLINK-5210,PAYLOAD,2023-01-23 02:56:46,15.0880274,0.0001068,53.2172,58.9895,101.1868,258.9244,-0.00019911,-3.452e-05,0.0,0 STARLINK-5210,1 54082U 22136AH  23023.12276450 -.00003452  00000-0 -19911-3 0  9990,2 54082  53.2172  58.9895 0001068 101.1868 258.9244 15.08802740 15123,6917.994000000001,95.44,540.5980000000001,539.12,0.0
54082.0,STARLINK-5210,PAYLOAD,2023-01-23 18:50:36,15.08832094,6.7e-05,53.2172,56.0167,65.3149,294.7912,2.8229e-05,1.62e-06,0.0,0 STARLINK-5210,1 54082U 22136AH  23023.78515026  .00000162  00000-0  28229-4 0  9993,2 54082  53.2172  56.0167 0000670  65.3149 294.7912 15.08832094 15221,6917.905,95.438,540.2330000000001,539.306,0.0
54082.0,STARLINK-5210,PAYLOAD,2023-01-24 09:09:03,15.08860298,0.0001495,53.2179,53.3416,73.7952,286.3205,0.00016264,2.303e-05,0.0,0 STARLINK-5210,1 54082U 22136AH  23024.38129194  .00002303  00000-0  16264-3 0  9991,2 54082  53.2179  53.3416 0001495  73.7952 286.3205 15.08860298 15315,6917.818,95.436,540.7180000000001,538.649,0.0
54082.0,STARLINK-5210,PAYLOAD,2023-01-24 18:41:22,15.08848784,0.0001158,53.2166,51.553,71.047,289.0647,0.00011902,1.607e-05,0.0,0 STARLINK-5210,1 54082U 22136AH  23024.77873688  .00001607  00000-0  11902-3 0  9998,2 54082  53.2166  51.5530 0001158  71.0470 289.0647 15.08848784 15372,6917.854,95.437,540.52,538.9169999999999,0.0
54082.0,STARLINK-5210,PAYLOAD,2023-01-25 08:59:52,15.08821049,0.0001471,53.2187,48.8817,69.7681,290.3469,0.00026056,3.859e-05,0.0,0 STARLINK-5210,1 54082U 22136AH  23025.37491491  .00003859  00000-0  26056-3 0  9990,2 54082  53.2187  48.8817 0001471  69.7681 290.3469 15.08821049 15460,6917.938,95.439,540.821,538.786,0.0
54082.0,STARLINK-5210,PAYLOAD,2023-01-25 18:32:11,15.08831187,0.0001416,53.2176,47.0971,78.19,281.9251,0.00023543,3.46e-05,0.0,0 STARLINK-5210,1 54082U 22136AH  23025.77235139  .00003460  00000-0  23543-3 0  9995,2 54082  53.2176  47.0971 0001416  78.1900 281.9251 15.08831187 15523,6917.906999999999,95.438,540.752,538.793,0.0
54082.0,STARLINK-5210,PAYLOAD,2023-01-26 07:15:15,15.08854668,0.0001641,53.2174,44.7184,71.057,289.06,-3.1894e-05,-7.96e-06,0.0,0 STARLINK-5210,1 54082U 22136AH  23026.30226256 -.00000796  00000-0 -31894-4 0  9995,2 54082  53.2174  44.7184 0001641  71.0570 289.0600 15.08854668 15601,6917.835999999999,95.437,540.836,538.565,0.0
54082.0,STARLINK-5210,PAYLOAD,2023-01-27 05:30:39,15.08836044,0.0001317,53.2165,40.5549,81.3515,278.7626,3.3198e-05,2.4e-06,0.0,0 STARLINK-5210,1 54082U 22136AH  23027.22962750  .00000240  00000-0  33198-4 0  9994,2 54082  53.2165  40.5549 0001317  81.3515 278.7626 15.08836044 15749,6917.892,95.438,540.669,538.846,0.0
